#aV2015  9  4  0  0  0.00000000     288 DD+AD WGS84 FIT  NGA
## 1860 432000.00000000   300.00000000 57269 0.0000000000000
+   31     1  2  3  4  5  6  7  8  9 11 12 13 14 15 16 17 18
+         19 20 21 22 23 24 25 26 27 28 29 30 31 32  0  0  0
+          0  0  0  0  0  0  0  0  0  0  0  0  0  0  0  0  0
+          0  0  0  0  0  0  0  0  0  0  0  0  0  0  0  0  0
+          0  0  0  0  0  0  0  0  0  0  0  0  0  0  0  0  0
++         2  2  2  2  2  2  2  2  2  2  2  2  2  2  2  2  2
++         2  2  2  2  2  2  2  2  2  2  2  2  2  2  0  0  0
++         0  0  0  0  0  0  0  0  0  0  0  0  0  0  0  0  0
++         0  0  0  0  0  0  0  0  0  0  0  0  0  0  0  0  0
++         0  0  0  0  0  0  0  0  0  0  0  0  0  0  0  0  0
%c cc cc ccc ccc cccc cccc cccc cccc ccccc ccccc ccccc ccccc
%c cc cc ccc ccc cccc cccc cccc cccc ccccc ccccc ccccc ccccc
%f  0.0000000  0.000000000  0.00000000000  0.000000000000000
%f  0.0000000  0.000000000  0.00000000000  0.000000000000000
%i    0    0    0    0      0      0      0      0         0
%i    0    0    0    0      0      0      0      0         0
/*      NGA, ST. LOUIS,MO.                                  
/*   EPHEMERIS COMPUTED FROM  1 DAYS OF DATA                
/*   EPOCHA SMOOTHER                                       
/* CCCCCCCCCCCCCCCCCCCCCCCCCCCCCCCCCCCCCCCCCCCCCCCCCCCCCCCCC
*  2015  9  4 22  0  0.00000000
P  1   8462.605535  13806.613919 -21154.321824     -0.086494                    
V  1 -26399.750391   3767.541927  -7930.211537      0.006541                    
P  2  15443.621797 -14424.896697  16199.527002    587.429097                    
V  2  20237.870577   -785.905122 -20915.259765      0.017477                    
P  3  12644.142724  22736.234279  -5269.049012     20.014894                    
V  3  -6291.988693  -3647.365043 -30797.668602      0.014150                    
P  4  -1969.626198  16047.467988 -21387.514933    -17.134971                    
V  4 -26287.450650   3166.379821   5137.699065     -0.039705                    
P  5   4754.475320 -17038.541169  19698.812655   -198.999215                    
V  5  16564.841661  19098.417068  12675.220082      0.041145                    
P  6  24465.894636  -7854.361169   6703.742254     51.686291                    
V  6   8781.133369   1523.062916 -30262.023053      0.074868                    
P  7  22212.379493   6910.953982  13292.172678    483.401928                    
V  7 -16255.683138   3388.148101  25252.415174      0.018482                    
P  8  -3442.110802  24744.127835  -8995.042980     -4.123473                    
V  8  -6788.094293   9612.592287  28888.876797     -0.013302                    
P  9  11928.259937  10462.870043  21293.908281    -10.475885                    
V  9 -10880.590524  24789.053847  -6101.171172      0.009545                    
P 11   4200.969003  16646.298582 -20805.938062   -602.177161                    
V 11 -22993.979666  11093.937138   4449.556222     -0.023812                    
P 12  -9860.579202 -23517.849129  -7911.625542    325.143497                    
V 12   6852.161588   7201.997374 -30148.606747      0.034568                    
P 13  12640.440942 -23426.720363   -553.143140   -146.568779                    
V 13   2301.715642    666.544834  31938.572653     -0.030000                    
P 14 -17667.917336   6561.514830 -18398.100525     36.973403                    
V 14   9520.315936 -22008.897054 -16913.667057     -0.026237                    
P 15   1628.701432 -24712.571216  -9231.833593   -269.830677                    
V 15   7363.295717  -9828.703298  28222.585597     -0.020485                    
P 16  -5543.085565  15856.914406  20388.699221    -90.007946                    
V 16 -15146.015357 -21280.857514  12738.411025      0.040358                    
P 17  17366.592636  -7996.042486 -18042.087797   -186.594837                    
V 17  -8672.586396  21973.996815 -17996.727253     -0.013262                    
P 18 -20469.379399 -13466.837263 -10087.346443    431.286523                    
V 18  -5802.347584 -12664.508371  27027.876849      0.031630                    
P 19  -1523.284398  22660.537922 -13648.644937   -519.549088                    
V 19 -10005.326256  14039.737154  25253.986283     -0.006732                    
P 20 -11090.903251 -22387.992108   8738.988437    352.639349                    
V 20  10288.412537   6094.168361  28264.505737      0.030810                    
P 21 -24035.156931  -4911.252805  11297.261856   -477.295941                    
V 21  12705.802702  -4569.996206  26410.994927     -0.028420                    
P 22 -18604.069272   -564.675066 -18769.931938    388.128149                    
V 22 -13821.561417 -20206.269757  13952.248190      0.037710                    
P 23   2960.685801  21367.016183  15362.866251   -131.306889                    
V 23  -9884.971607  16915.459458 -22296.355929     -0.022504                    
P 24  -5413.347799 -14678.390837 -21509.535863     -4.129905                    
V 24  26923.740760  -4207.960664  -3758.307482     -0.006480                    
P 25 -17990.708631 -19225.505204   4004.664594    -34.413226                    
V 25  -1468.477848  -5388.238513 -31504.672193     -0.050264                    
P 26 -13296.438949   7587.083874  21699.472098    -43.961730                    
V 26 -16598.872786 -22008.833722  -2469.566510     -0.101063                    
P 27 -11986.446247  23429.645181   3031.020999     17.176658                    
V 27   -971.227936  -4618.053905  31688.123759      0.029325                    
P 28  18116.526209   6425.423024 -17745.593273    465.303436                    
V 28  11905.459566  20535.845615  18856.102784      0.026645                    
P 29  -9474.355594 -13202.160021  21030.223618    632.217736                    
V 29  12223.490300 -23662.345536  -9313.765961      0.022852                    
P 30  26453.422322    559.867444   2788.033137     18.733446                    
V 30  -3376.972111   3093.213455  31310.785479      0.067869                    
P 31 -24602.579756   7419.209575   7505.730124    303.999288                    
V 31  -9399.446303  -1089.614377 -29928.320798     -0.013332                    
P 32   1448.628891  22201.101393 -14940.265329    -52.811521                    
V 32 -11765.235915 -14696.250384 -22505.582260      0.108897                    
EOF
